{"userProfiles":[{"id":1,"name":"user1","role":"user","email":"user1@gmail.com","address1":"999 Main St","address2":"888 Minor St","city":"Houston","state":"Texas","zipcode":"9999"},{"id":2,"name":"user2","role":"user","email":"user2@gmail.com","address1":"999 Main St","address2":"888 Minor St","city":"Houston","state":"Texas","zipcode":"8888"},{"id":3,"name":"user3","role":"user","email":"user3@gmail.com","address1":"999 Main St","address2":"888 Minor St","city":"Houston","state":"Texas","zipcode":"7777"},{"id":4,"name":"user4","role":"employee","email":"employee@gmail.com","address1":"999 Main St","address2":"888 Minor St","city":"Houston","state":"Texas","zipcode":"666"},{"id":5,"name":"user5","role":"admin","email":"admin@gmail.com","address1":"999 Main St","address2":"888 Minor St","city":"Houston","state":"Texas","zipcode":"6666"},{"fullName":"Giang","address1":"12750 Briar Forest Dr","address2":"Apt 802","city":"Houston","state":"TX","zipCode":"77077"},{"address1":"999 Main St","address2":"888 Minor St","city":"Houston","state":"Texas","zipCode":"8888"},{"fullName":"a","address1":"a","address2":"a","city":"a","state":"AK","zipCode":"00009"},{"fullName":"Giang","address1":"12750 Briar Forest Dr","address2":"Apt 802","city":"Houston","state":"TX","zipCode":"77077"},{"fullName":"Giang H","address1":"12750 Briar Forest Dr","address2":"Apt 802","city":"Houston","state":"TX","zipCode":"77077"},{"fullName":"John Doe","address1":"123 Main St","address2":"Apt 4","city":"Anytown","state":"Anystate","zipCode":"12345"},{"fullName":"John Doe","address1":"123 Main St","address2":"Apt 4","city":"Anytown","state":"Anystate","zipCode":"12345"},{"fullName":"John Doe","address1":"123 Main St","address2":"Apt 4","city":"Anytown","state":"Anystate","zipCode":"12345"},{"fullName":"John Doe","address1":"123 Main St","address2":"Apt 4","city":"Anytown","state":"Anystate","zipCode":"12345"},{"fullName":"John Doe","address1":"123 Main St","address2":"Apt 4","city":"Anytown","state":"Anystate","zipCode":"12345"},{"fullName":"John Doe","address1":"123 Main St","address2":"Apt 4","city":"Anytown","state":"Anystate","zipCode":"12345"},{"fullName":"John Doe","address1":"123 Main St","address2":"Apt 4","city":"Anytown","state":"Anystate","zipCode":"12345"},{"fullName":"John Doe","address1":"123 Main St","address2":"Apt 4","city":"Anytown","state":"Anystate","zipCode":"12345"},{"fullName":"John Doe","address1":"123 Main St","address2":"Apt 4","city":"Anytown","state":"Anystate","zipCode":"12345"},{"fullName":"John Doe","address1":"123 Main St","address2":"Apt 4","city":"Anytown","state":"Anystate","zipCode":"12345"},{"fullName":"a","address1":"a","address2":"a","city":"a","state":"AK","zipCode":"00009"},{"fullName":"an","address1":"a 111","address2":"","city":"Houston","state":"TX","zipCode":"77072"},{"fullName":"a","address1":"b","address2":"","city":"c","state":"AK","zipCode":"77072"}]}